[{"OBJECT_NAME":"JILIN-1 GAOFEN 03D47","OBJECT_ID":"2022-167L","EPOCH":"2026-03-09T22:56:46.924224","MEAN_MOTION":15.31686941,"ECCENTRICITY":0.00089304,"INCLINATION":97.6835,"RA_OF_ASC_NODE":234.6581,"ARG_OF_PERICENTER":110.4031,"MEAN_ANOMALY":249.8169,"EPHEMERIS_TYPE":0,"CLASSIFICATION_TYPE":"U","NORAD_CAT_ID":54692,"ELEMENT_SET_NO":999,"REV_AT_EPOCH":18014,"BSTAR":0.00047294748,"MEAN_MOTION_DOT":0.00014417,"MEAN_MOTION_DDOT":0},{"OBJECT_NAME":"STARLINK-32075","OBJECT_ID":"2024-136S","EPOCH":"2026-03-09T08:12:29.134368","MEAN_MOTION":15.30185308,"ECCENTRICITY":0.00013057,"INCLINATION":53.1612,"RA_OF_ASC_NODE":77.1119,"ARG_OF_PERICENTER":89.5137,"MEAN_ANOMALY":270.6014,"EPHEMERIS_TYPE":0,"CLASSIFICATION_TYPE":"U","NORAD_CAT_ID":60345,"ELEMENT_SET_NO":999,"REV_AT_EPOCH":8961,"BSTAR":-1.2369224e-5,"MEAN_MOTION_DOT":-7.25e-6,"MEAN_MOTION_DDOT":0}]
